*******************************************************************************
Ephemeris / WWW_USER Tue Aug  5 12:01:04 2025 Pasadena, USA      / Horizons    
*******************************************************************************
Target body name: Titan (606)                     {source: sat441l}
Center body name: Earth (399)                     {source: DE441}
Center-site name: Mauna Kea
*******************************************************************************
Start time      : A.D. 2018-Aug-09 05:04:00.0000 UT      
Stop  time      : A.D. 2018-Aug-09 15:50:00.0000 UT      
Step-size       : 1 minutes
*******************************************************************************
Target pole/equ : IAU_TITAN                       {West-longitude positive}
Target radii    : 2575.15, 2574.78, 2574.47 km    {Equator_a, b, pole_c}       
Center geodetic : 204.5278, 19.8260847, 4.21024   {E-lon(deg),Lat(deg),Alt(km)}
Center cylindric: 204.5278, 6006.35451, 2151.0229 {E-lon(deg),Dxy(km),Dz(km)}
Center pole/equ : ITRF93                          {East-longitude positive}
Center radii    : 6378.137, 6378.137, 6356.752 km {Equator_a, b, pole_c}       
Target primary  : Saturn
Vis. interferer : MOON (R_eq= 1737.400) km        {source: DE441}
Rel. light bend : Sun                             {source: DE441}
Rel. lght bnd GM: 1.3271E+11 km^3/s^2                                          
Atmos refraction: NO (AIRLESS)
RA format       : HMS
Time format     : CAL 
Calendar mode   : Mixed Julian/Gregorian
RTS-only print  : NO       
EOP file        : eop.250804.p251031                                           
EOP coverage    : DATA-BASED 1962-JAN-20 TO 2025-AUG-04. PREDICTS-> 2025-OCT-30
Units conversion: 1 au= 149597870.700 km, c= 299792.458 km/s, 1 day= 86400.0 s 
Table cut-offs 1: Elevation (-90.0deg=NO ),Airmass (>38.000=NO), Daylight (YES)
Table cut-offs 2: Solar elongation (  0.0,180.0=NO ),Local Hour Angle( 0.0=NO )
Table cut-offs 3: RA/DEC angular rate (     0.0=NO )                           
*******************************************************************************
 Date__(UT)__HR:MN     R.A._________(ICRF)_________DEC
******************************************************
$$SOE
 2018-Aug-09 12:07     18 12 19.232310 -22 37 44.69855
 2018-Aug-09 12:08     18 12 19.224823 -22 37 44.68422
 2018-Aug-09 12:09     18 12 19.217338 -22 37 44.66988
 2018-Aug-09 12:10     18 12 19.209856 -22 37 44.65555
 2018-Aug-09 12:11     18 12 19.202375 -22 37 44.64121
 2018-Aug-09 12:12     18 12 19.194897 -22 37 44.62688
 2018-Aug-09 12:13     18 12 19.187422 -22 37 44.61254
 2018-Aug-09 12:14     18 12 19.179948 -22 37 44.59820
 2018-Aug-09 12:15     18 12 19.172477 -22 37 44.58387
 2018-Aug-09 12:16     18 12 19.165008 -22 37 44.56953
 2018-Aug-09 12:17     18 12 19.157542 -22 37 44.55519
 2018-Aug-09 12:18     18 12 19.150077 -22 37 44.54085
 2018-Aug-09 12:19     18 12 19.142615 -22 37 44.52651
 2018-Aug-09 12:20     18 12 19.135155 -22 37 44.51217
 2018-Aug-09 12:21     18 12 19.127698 -22 37 44.49783
 2018-Aug-09 12:22     18 12 19.120243 -22 37 44.48349
 2018-Aug-09 12:23     18 12 19.112790 -22 37 44.46915
 2018-Aug-09 12:24     18 12 19.105339 -22 37 44.45481
 2018-Aug-09 12:25     18 12 19.097891 -22 37 44.44047
 2018-Aug-09 12:26     18 12 19.090444 -22 37 44.42613
 2018-Aug-09 12:27     18 12 19.083001 -22 37 44.41179
 2018-Aug-09 12:28     18 12 19.075559 -22 37 44.39744
 2018-Aug-09 12:29     18 12 19.068120 -22 37 44.38310
 2018-Aug-09 12:30     18 12 19.060683 -22 37 44.36876
 2018-Aug-09 12:31     18 12 19.053248 -22 37 44.35442
 2018-Aug-09 12:32     18 12 19.045816 -22 37 44.34007
 2018-Aug-09 12:33     18 12 19.038386 -22 37 44.32573
 2018-Aug-09 12:34     18 12 19.030958 -22 37 44.31139
 2018-Aug-09 12:35     18 12 19.023532 -22 37 44.29705
 2018-Aug-09 12:36     18 12 19.016109 -22 37 44.28271
 2018-Aug-09 12:37     18 12 19.008688 -22 37 44.26836
 2018-Aug-09 12:38     18 12 19.001270 -22 37 44.25402
 2018-Aug-09 12:39     18 12 18.993853 -22 37 44.23968
 2018-Aug-09 12:40     18 12 18.986439 -22 37 44.22534
 2018-Aug-09 12:41     18 12 18.979028 -22 37 44.21100
 2018-Aug-09 12:42     18 12 18.971618 -22 37 44.19666
 2018-Aug-09 12:43     18 12 18.964211 -22 37 44.18232
 2018-Aug-09 12:44     18 12 18.956806 -22 37 44.16798
 2018-Aug-09 12:45     18 12 18.949404 -22 37 44.15364
 2018-Aug-09 12:46     18 12 18.942004 -22 37 44.13930
 2018-Aug-09 12:47     18 12 18.934606 -22 37 44.12496
 2018-Aug-09 12:48     18 12 18.927210 -22 37 44.11062
 2018-Aug-09 12:49     18 12 18.919817 -22 37 44.09628
 2018-Aug-09 12:50     18 12 18.912426 -22 37 44.08194
 2018-Aug-09 12:51     18 12 18.905037 -22 37 44.06761
 2018-Aug-09 12:52     18 12 18.897651 -22 37 44.05327
 2018-Aug-09 12:53     18 12 18.890267 -22 37 44.03893
 2018-Aug-09 12:54     18 12 18.882885 -22 37 44.02460
 2018-Aug-09 12:55     18 12 18.875506 -22 37 44.01026
 2018-Aug-09 12:56     18 12 18.868129 -22 37 43.99593
 2018-Aug-09 12:57     18 12 18.860754 -22 37 43.98160
 2018-Aug-09 12:58     18 12 18.853382 -22 37 43.96726
 2018-Aug-09 12:59     18 12 18.846012 -22 37 43.95293
 2018-Aug-09 13:00     18 12 18.838644 -22 37 43.93860
 2018-Aug-09 13:01     18 12 18.831278 -22 37 43.92427
 2018-Aug-09 13:02  s  18 12 18.823915 -22 37 43.90994
 2018-Aug-09 13:03     18 12 18.816554 -22 37 43.89561
 2018-Aug-09 13:04     18 12 18.809196 -22 37 43.88128
 2018-Aug-09 13:05     18 12 18.801840 -22 37 43.86696
 2018-Aug-09 13:06     18 12 18.794486 -22 37 43.85263
 2018-Aug-09 13:07     18 12 18.787134 -22 37 43.83831
 2018-Aug-09 13:08     18 12 18.779785 -22 37 43.82398
 2018-Aug-09 13:09     18 12 18.772438 -22 37 43.80966
 2018-Aug-09 13:10     18 12 18.765093 -22 37 43.79534
 2018-Aug-09 13:11     18 12 18.757751 -22 37 43.78102
 2018-Aug-09 13:12     18 12 18.750411 -22 37 43.76670
 2018-Aug-09 13:13     18 12 18.743073 -22 37 43.75238
 2018-Aug-09 13:14     18 12 18.735738 -22 37 43.73807
 2018-Aug-09 13:15     18 12 18.728405 -22 37 43.72375
 2018-Aug-09 13:16     18 12 18.721074 -22 37 43.70944
 2018-Aug-09 13:17     18 12 18.713746 -22 37 43.69512
 2018-Aug-09 13:18     18 12 18.706420 -22 37 43.68081
 2018-Aug-09 13:19     18 12 18.699096 -22 37 43.66650
 2018-Aug-09 13:20     18 12 18.691775 -22 37 43.65219
 2018-Aug-09 13:21     18 12 18.684456 -22 37 43.63788
 2018-Aug-09 13:22     18 12 18.677139 -22 37 43.62358
 2018-Aug-09 13:23     18 12 18.669825 -22 37 43.60927
 2018-Aug-09 13:24     18 12 18.662512 -22 37 43.59497
 2018-Aug-09 13:25     18 12 18.655203 -22 37 43.58067
 2018-Aug-09 13:26     18 12 18.647895 -22 37 43.56637
 2018-Aug-09 13:27     18 12 18.640590 -22 37 43.55207
 2018-Aug-09 13:28     18 12 18.633287 -22 37 43.53778
 2018-Aug-09 13:29     18 12 18.625987 -22 37 43.52348
 2018-Aug-09 13:30     18 12 18.618689 -22 37 43.50919
 2018-Aug-09 13:31     18 12 18.611393 -22 37 43.49490
 2018-Aug-09 13:32     18 12 18.604099 -22 37 43.48061
 2018-Aug-09 13:33     18 12 18.596808 -22 37 43.46632
 2018-Aug-09 13:34     18 12 18.589519 -22 37 43.45203
 2018-Aug-09 13:35     18 12 18.582233 -22 37 43.43775
 2018-Aug-09 13:36     18 12 18.574948 -22 37 43.42347
 2018-Aug-09 13:37     18 12 18.567666 -22 37 43.40919
 2018-Aug-09 13:38     18 12 18.560387 -22 37 43.39491
 2018-Aug-09 13:39     18 12 18.553109 -22 37 43.38063
 2018-Aug-09 13:40     18 12 18.545835 -22 37 43.36636
 2018-Aug-09 13:41     18 12 18.538562 -22 37 43.35208
 2018-Aug-09 13:42     18 12 18.531292 -22 37 43.33781
 2018-Aug-09 13:43     18 12 18.524024 -22 37 43.32354
 2018-Aug-09 13:44     18 12 18.516758 -22 37 43.30928
 2018-Aug-09 13:45     18 12 18.509495 -22 37 43.29501
 2018-Aug-09 13:46     18 12 18.502233 -22 37 43.28075
 2018-Aug-09 13:47     18 12 18.494975 -22 37 43.26649
 2018-Aug-09 13:48     18 12 18.487718 -22 37 43.25224
 2018-Aug-09 13:49     18 12 18.480464 -22 37 43.23798
 2018-Aug-09 13:50     18 12 18.473212 -22 37 43.22373
 2018-Aug-09 13:51     18 12 18.465963 -22 37 43.20948
 2018-Aug-09 13:52     18 12 18.458716 -22 37 43.19523
 2018-Aug-09 13:53     18 12 18.451471 -22 37 43.18098
 2018-Aug-09 13:54     18 12 18.444228 -22 37 43.16674
 2018-Aug-09 13:55     18 12 18.436988 -22 37 43.15250
 2018-Aug-09 13:56     18 12 18.429750 -22 37 43.13826
 2018-Aug-09 13:57     18 12 18.422515 -22 37 43.12402
 2018-Aug-09 13:58     18 12 18.415281 -22 37 43.10979
 2018-Aug-09 13:59     18 12 18.408050 -22 37 43.09556
 2018-Aug-09 14:00     18 12 18.400822 -22 37 43.08133
 2018-Aug-09 14:01  m  18 12 18.393595 -22 37 43.06711
 2018-Aug-09 14:02  m  18 12 18.386371 -22 37 43.05288
 2018-Aug-09 14:03  m  18 12 18.379149 -22 37 43.03866
 2018-Aug-09 14:04  m  18 12 18.371930 -22 37 43.02445
 2018-Aug-09 14:05  m  18 12 18.364713 -22 37 43.01023
 2018-Aug-09 14:06  m  18 12 18.357498 -22 37 42.99602
 2018-Aug-09 14:07  m  18 12 18.350285 -22 37 42.98181
 2018-Aug-09 14:08  m  18 12 18.343075 -22 37 42.96760
 2018-Aug-09 14:09  m  18 12 18.335867 -22 37 42.95340
 2018-Aug-09 14:10  m  18 12 18.328662 -22 37 42.93920
 2018-Aug-09 14:11  m  18 12 18.321458 -22 37 42.92500
 2018-Aug-09 14:12  m  18 12 18.314257 -22 37 42.91081
 2018-Aug-09 14:13  m  18 12 18.307058 -22 37 42.89662
 2018-Aug-09 14:14  m  18 12 18.299862 -22 37 42.88243
 2018-Aug-09 14:15  m  18 12 18.292668 -22 37 42.86824
 2018-Aug-09 14:16  m  18 12 18.285476 -22 37 42.85406
 2018-Aug-09 14:17  m  18 12 18.278286 -22 37 42.83988
 2018-Aug-09 14:18  m  18 12 18.271099 -22 37 42.82570
 2018-Aug-09 14:19  m  18 12 18.263914 -22 37 42.81153
 2018-Aug-09 14:20  m  18 12 18.256731 -22 37 42.79736
 2018-Aug-09 14:21  m  18 12 18.249551 -22 37 42.78319
 2018-Aug-09 14:22  m  18 12 18.242372 -22 37 42.76903
 2018-Aug-09 14:23  m  18 12 18.235196 -22 37 42.75487
 2018-Aug-09 14:24  m  18 12 18.228023 -22 37 42.74071
 2018-Aug-09 14:25  m  18 12 18.220851 -22 37 42.72656
 2018-Aug-09 14:26  m  18 12 18.213682 -22 37 42.71241
 2018-Aug-09 14:27  m  18 12 18.206516 -22 37 42.69826
